{
  "type": "FeatureCollection",
  "features": [
    {
      "type": "Feature",
      "properties": {
        "norad_id": 35959,
        "name": "COSMOS 2251 DEB",
        "group": "cosmos-2251-debris",
        "lat": 13.94068773343169,
        "lon": -60.101847470274144,
        "alt_km": 762.8650517686156,
        "timestamp": "2025-12-21T14:40:48.315703+00:00",
        "meta_object_name": "COSMOS 2251 DEB",
        "meta_object_id": "1993-036AUZ",
        "meta_epoch": "2025-12-21T02:53:38.076576",
        "meta_mean_motion": 14.34141289,
        "meta_eccentricity": 0.00219152,
        "meta_inclination": 74.0332,
        "meta_ra_of_asc_node": 296.7214,
        "meta_arg_of_pericenter": 14.8997,
        "meta_mean_anomaly": 345.2796,
        "meta_ephemeris_type": 0,
        "meta_classification_type": "U",
        "meta_norad_cat_id": 35959,
        "meta_element_set_no": 999,
        "meta_rev_at_epoch": 85048,
        "meta_bstar": 8.7522177e-05,
        "meta_mean_motion_dot": 2.2e-06,
        "meta_mean_motion_ddot": 0,
        "tle_line1": "1 35959U 93036AUZ 25355.12057959  .00000220  00000+0  87522-4 0  9991",
        "tle_line2": "2 35959  74.0332 296.7214 0021915  14.8997 345.2796 14.34141289850487"
      },
      "geometry": {
        "type": "Point",
        "coordinates": [
          -60.101847470274144,
          13.94068773343169
        ]
      }
    },
    {
      "type": "Feature",
      "properties": {
        "norad_id": 35961,
        "name": "COSMOS 2251 DEB",
        "group": "cosmos-2251-debris",
        "lat": 65.28931254048562,
        "lon": -30.226117622125884,
        "alt_km": 731.9355956184372,
        "timestamp": "2025-12-21T14:40:48.315713+00:00",
        "meta_object_name": "COSMOS 2251 DEB",
        "meta_object_id": "1993-036AVB",
        "meta_epoch": "2025-12-18T21:15:12.372768",
        "meta_mean_motion": 14.05418101,
        "meta_eccentricity": 0.01915239,
        "meta_inclination": 73.9239,
        "meta_ra_of_asc_node": 193.3704,
        "meta_arg_of_pericenter": 125.5075,
        "meta_mean_anomaly": 236.4097,
        "meta_ephemeris_type": 0,
        "meta_classification_type": "U",
        "meta_norad_cat_id": 35961,
        "meta_element_set_no": 999,
        "meta_rev_at_epoch": 62768,
        "meta_bstar": 0.0011788636,
        "meta_mean_motion_dot": 2.232e-05,
        "meta_mean_motion_ddot": 0,
        "tle_line1": "1 35961U 93036AVB 25352.88555987  .00002232  00000+0  11789-2 0  9993",
        "tle_line2": "2 35961  73.9239 193.3704 0191523 125.5075 236.4097 14.05418101627687"
      },
      "geometry": {
        "type": "Point",
        "coordinates": [
          -30.226117622125884,
          65.28931254048562
        ]
      }
    },
    {
      "type": "Feature",
      "properties": {
        "norad_id": 35979,
        "name": "COSMOS 2251 DEB",
        "group": "cosmos-2251-debris",
        "lat": 46.69365142068955,
        "lon": -121.26025564526654,
        "alt_km": 619.4656750188487,
        "timestamp": "2025-12-21T14:40:48.315723+00:00",
        "meta_object_name": "COSMOS 2251 DEB",
        "meta_object_id": "1993-036AVV",
        "meta_epoch": "2025-12-19T21:49:20.667936",
        "meta_mean_motion": 14.74720129,
        "meta_eccentricity": 0.0059181,
        "meta_inclination": 74.0091,
        "meta_ra_of_asc_node": 224.3569,
        "meta_arg_of_pericenter": 354.8475,
        "meta_mean_anomaly": 19.529,
        "meta_ephemeris_type": 0,
        "meta_classification_type": "U",
        "meta_norad_cat_id": 35979,
        "meta_element_set_no": 999,
        "meta_rev_at_epoch": 88739,
        "meta_bstar": 0.00048194,
        "meta_mean_motion_dot": 3.28e-05,
        "meta_mean_motion_ddot": 0,
        "tle_line1": "1 35979U 93036AVV 25353.90926699  .00003280  00000+0  48194-3 0  9993",
        "tle_line2": "2 35979  74.0091 224.3569 0059181 354.8475  19.5290 14.74720129887395"
      },
      "geometry": {
        "type": "Point",
        "coordinates": [
          -121.26025564526654,
          46.69365142068955
        ]
      }
    },
    {
      "type": "Feature",
      "properties": {
        "norad_id": 35980,
        "name": "COSMOS 2251 DEB",
        "group": "cosmos-2251-debris",
        "lat": 21.63587859921073,
        "lon": -80.93105430967235,
        "alt_km": 688.7859194730636,
        "timestamp": "2025-12-21T14:40:48.315733+00:00",
        "meta_object_name": "COSMOS 2251 DEB",
        "meta_object_id": "1993-036AVW",
        "meta_epoch": "2025-12-21T00:47:41.997408",
        "meta_mean_motion": 14.59403711,
        "meta_eccentricity": 0.00538655,
        "meta_inclination": 73.9127,
        "meta_ra_of_asc_node": 106.7527,
        "meta_arg_of_pericenter": 240.1949,
        "meta_mean_anomaly": 119.3854,
        "meta_ephemeris_type": 0,
        "meta_classification_type": "U",
        "meta_norad_cat_id": 35980,
        "meta_element_set_no": 999,
        "meta_rev_at_epoch": 61607,
        "meta_bstar": 0.00094415254,
        "meta_mean_motion_dot": 4.534e-05,
        "meta_mean_motion_ddot": 0,
        "tle_line1": "1 35980U 93036AVW 25355.03312497  .00004534  00000+0  94415-3 0  9996",
        "tle_line2": "2 35980  73.9127 106.7527 0053865 240.1949 119.3854 14.59403711616076"
      },
      "geometry": {
        "type": "Point",
        "coordinates": [
          -80.93105430967235,
          21.63587859921073
        ]
      }
    },
    {
      "type": "Feature",
      "properties": {
        "norad_id": 35982,
        "name": "COSMOS 2251 DEB",
        "group": "cosmos-2251-debris",
        "lat": -10.554179538181769,
        "lon": 152.9986922420119,
        "alt_km": 729.9555255613759,
        "timestamp": "2025-12-21T14:40:48.315743+00:00",
        "meta_object_name": "COSMOS 2251 DEB",
        "meta_object_id": "1993-036AVY",
        "meta_epoch": "2025-12-20T06:37:39.322848",
        "meta_mean_motion": 14.62790539,
        "meta_eccentricity": 0.00644028,
        "meta_inclination": 74.0578,
        "meta_ra_of_asc_node": 332.5013,
        "meta_arg_of_pericenter": 36.5785,
        "meta_mean_anomaly": 323.9753,
        "meta_ephemeris_type": 0,
        "meta_classification_type": "U",
        "meta_norad_cat_id": 35982,
        "meta_element_set_no": 999,
        "meta_rev_at_epoch": 86276,
        "meta_bstar": 0.00043175638,
        "meta_mean_motion_dot": 2.239e-05,
        "meta_mean_motion_ddot": 0,
        "tle_line1": "1 35982U 93036AVY 25354.27614957  .00002239  00000+0  43176-3 0  9997",
        "tle_line2": "2 35982  74.0578 332.5013 0064402  36.5785 323.9753 14.62790539862764"
      },
      "geometry": {
        "type": "Point",
        "coordinates": [
          152.9986922420119,
          -10.554179538181769
        ]
      }
    },
    {
      "type": "Feature",
      "properties": {
        "norad_id": 35987,
        "name": "COSMOS 2251 DEB",
        "group": "cosmos-2251-debris",
        "lat": -72.42460698797721,
        "lon": -114.81000679395828,
        "alt_km": 784.9574910823312,
        "timestamp": "2025-12-21T14:40:48.315753+00:00",
        "meta_object_name": "COSMOS 2251 DEB",
        "meta_object_id": "1993-036AWD",
        "meta_epoch": "2025-12-21T03:25:05.273760",
        "meta_mean_motion": 14.43173107,
        "meta_eccentricity": 0.00462099,
        "meta_inclination": 74.0005,
        "meta_ra_of_asc_node": 311.0003,
        "meta_arg_of_pericenter": 74.0129,
        "meta_mean_anomaly": 286.6111,
        "meta_ephemeris_type": 0,
        "meta_classification_type": "U",
        "meta_norad_cat_id": 35987,
        "meta_element_set_no": 999,
        "meta_rev_at_epoch": 61186,
        "meta_bstar": 0.00065128022,
        "meta_mean_motion_dot": 2.191e-05,
        "meta_mean_motion_ddot": 0,
        "tle_line1": "1 35987U 93036AWD 25355.14242215  .00002191  00000+0  65128-3 0  9991",
        "tle_line2": "2 35987  74.0005 311.0003 0046209  74.0129 286.6111 14.43173107611860"
      },
      "geometry": {
        "type": "Point",
        "coordinates": [
          -114.81000679395828,
          -72.42460698797721
        ]
      }
    },
    {
      "type": "Feature",
      "properties": {
        "norad_id": 35989,
        "name": "COSMOS 2251 DEB",
        "group": "cosmos-2251-debris",
        "lat": 47.58017089668502,
        "lon": 69.26235825039006,
        "alt_km": 776.1213610930117,
        "timestamp": "2025-12-21T14:40:48.315763+00:00",
        "meta_object_name": "COSMOS 2251 DEB",
        "meta_object_id": "1993-036AWF",
        "meta_epoch": "2025-12-21T00:42:48.161376",
        "meta_mean_motion": 14.37112482,
        "meta_eccentricity": 0.00223748,
        "meta_inclination": 74.0376,
        "meta_ra_of_asc_node": 268.5863,
        "meta_arg_of_pericenter": 348.5916,
        "meta_mean_anomaly": 11.4727,
        "meta_ephemeris_type": 0,
        "meta_classification_type": "U",
        "meta_norad_cat_id": 35989,
        "meta_element_set_no": 999,
        "meta_rev_at_epoch": 87298,
        "meta_bstar": 0.00015604931,
        "meta_mean_motion_dot": 4.39e-06,
        "meta_mean_motion_ddot": 0,
        "tle_line1": "1 35989U 93036AWF 25355.02972409  .00000439  00000+0  15605-3 0  9993",
        "tle_line2": "2 35989  74.0376 268.5863 0022374 348.5916  11.4727 14.37112482872984"
      },
      "geometry": {
        "type": "Point",
        "coordinates": [
          69.26235825039006,
          47.58017089668502
        ]
      }
    }
  ]
}